{
  "norad_id": 68396,
  "name": "STARLINK-37190",
  "history": [
    {
      "epoch": "2026-04-02T18:00:01.999296Z",
      "apogee_km": 275.3950525935452,
      "perigee_km": 273.40461357308686,
      "latitude_deg": 2.941912219457912,
      "longitude_deg": -47.17514710012197,
      "height_km": 277.5010283190131,
      "semi_major_axis_km": 6652.536833083315,
      "eccentricity": 0.0001496,
      "inclination_deg": 97.2814,
      "raan_deg": 233.5533,
      "arg_perigee_deg": 73.3323,
      "mean_anomaly_deg": 103.5772,
      "mean_motion_rev_day": 16.00006807
    }
  ]
}