{"fetched_at":"2026-04-04T02:03:33Z","count":15623,"tles":[{"name":"STARLINK-37190","line1":"1 68396U 26063S   26092.75002315 -.01849746  10274-2 -36843-2 0  9994","line2":"2 68396  97.2814 233.5533 0001495  73.3323 103.5772 16.00006807  2329","category":"Starlink"}]}